MEAN_MOTION;ECCENTRICITY;INCLINATION;RA_OF_ASC_NODE;ARG_OF_PERICENTER;MEAN_ANOMALY;BSTAR;MEAN_MOTION_DOT;MEAN_MOTION_DDOT;TYPE
12.13810359;0.0001529;51.9885;308.015;42.295;54.9828;-0.00025983;-1.15E-6;0;Globalstar
12.13810362;0.0001534;51.9885;307.7839;42.9627;57.8918;-0.0002596;-1.15E-6;0;Globalstar
12.1381032;0.0001548;51.9882;305.0373;44.8961;55.6956;-0.000296;-1.18E-6;0;Globalstar
12.13810293;0.0001552;51.9882;304.5662;45.0318;76.5342;-0.00031813;-1.2E-6;0;Globalstar
12.13810233;0.0001559;51.988;302.2893;46.6713;55.9571;-0.00037357;-1.26E-6;0;Globalstar
12.13810185;0.0001566;51.9879;300.5138;47.826;327.0969;-0.00040729;-1.29E-6;0;Globalstar
12.13810179;0.0001568;51.9879;300.2724;48.0302;346.6353;-0.00042318;-1.3E-6;0;Globalstar
12.13810061;0.0001579;51.9877;297.5261;49.9881;343.9189;-0.00054672;-1.42E-6;0;Globalstar
12.13810061;0.0001579;51.9877;297.5261;49.9881;343.9189;-0.00054672;-1.42E-6;0;Globalstar
12.13809949;0.0001594;51.9874;293.794;52.263;91.3793;-0.0006527;-1.52E-6;0;Globalstar
12.13809949;0.0001594;51.9874;293.5545;52.1901;108.0157;-0.00064611;-1.52E-6;0;Globalstar
12.13809755;0.0001604;51.9872;291.049;54.3316;86.5738;-0.00082022;-1.68E-6;0;Globalstar
12.13809685;0.0001608;51.9871;289.4872;55.0222;22.2611;-0.00085585;-1.72E-6;0;Globalstar
12.1380966;0.0001607;51.987;288.7986;55.6255;24.6161;-0.00087722;-1.74E-6;0;Globalstar
12.13809495;0.0001609;51.9868;285.831;57.7332;9.7401;-0.00094847;-1.81E-6;0;Globalstar
12.1380948;0.0001611;51.9868;285.5861;57.784;34.8635;-0.00094854;-1.81E-6;0;Globalstar
12.13809325;0.0001611;51.9866;283.0845;59.4485;7.5569;-0.00098613;-1.84E-6;0;Globalstar
12.13809282;0.0001615;51.9865;282.3457;59.7361;89.2225;-0.00097985;-1.84E-6;0;Globalstar
12.13809135;0.0001613;51.9864;280.093;61.1822;30.655;-0.0009874;-1.85E-6;0;Globalstar
12.13808921;0.000161;51.9865;277.8116;62.3669;17.4266;-0.0011064;-1.96E-6;0;Globalstar
12.13808744;0.0001626;51.9864;275.7926;62.7289;312.3273;-0.0010286;-1.88E-6;0;Globalstar
12.13808614;0.000163;51.9863;274.3227;63.4782;103.271;-0.0010181;-1.87E-6;0;Globalstar
12.13808614;0.000163;51.9863;274.3227;63.4782;103.271;-0.0010181;-1.87E-6;0;Globalstar
12.13808537;0.0001633;51.9862;272.8154;64.0621;313.0537;-0.00092623;-1.79E-6;0;Globalstar
12.13808492;0.0001635;51.9862;272.318;64.3129;15.0977;-0.00093279;-1.79E-6;0;Globalstar
12.13808357;0.0001628;51.9862;270.0603;65.9234;324.0887;-0.00085549;-1.72E-6;0;Globalstar
12.138083;0.0001629;51.9862;269.5711;66.1476;13.2728;-0.00088014;-1.74E-6;0;Globalstar
12.13808085;0.0001605;51.9861;266.3599;69.2194;20.3822;-0.00083305;-1.7E-6;0;Globalstar
12.13808075;0.0001606;51.9861;266.1131;69.3953;48.407;-0.00082201;-1.69E-6;0;Globalstar
12.13807989;0.0001583;51.9865;263.3673;71.0936;45.4389;-0.00087108;-1.73E-6;0;Globalstar
12.13807977;0.0001583;51.9865;263.1372;71.1981;47.2045;-0.0008644;-1.73E-6;0;Globalstar
12.13807867;0.0001584;51.9865;261.3311;72.2078;6.7938;-0.00082402;-1.69E-6;0;Globalstar
12.1380765;0.000157;51.9864;258.8357;74.0975;329.5596;-0.00084537;-1.71E-6;0;Globalstar
12.13807634;0.0001568;51.9865;258.5845;74.2709;4.3875;-0.00083676;-1.7E-6;0;Globalstar
12.13807584;0.0001571;51.9865;257.8493;74.5764;80.3738;-0.00081503;-1.68E-6;0;Globalstar
12.13807501;0.0001559;51.9865;256.3351;75.752;300.7206;-0.00078051;-1.65E-6;0;Globalstar
12.13807389;0.000154;51.9865;253.5887;77.7196;298.1198;-0.000668;-1.54E-6;0;Globalstar
12.13807355;0.0001544;51.9865;253.0914;78.1373;359.8497;-0.00066452;-1.54E-6;0;Globalstar
12.13807279;0.0001538;51.9865;250.5954;79.5525;324.0835;-0.00054441;-1.42E-6;0;Globalstar
12.13807267;0.0001538;51.9865;250.3447;79.6841;358.2507;-0.00053759;-1.41E-6;0;Globalstar
12.13807218;0.0001525;51.9865;247.5978;81.4552;356.6943;-0.00039901;-1.28E-6;0;Globalstar
12.13807251;0.0001538;51.9865;246.8882;81.6434;32.6169;-0.0003099;-1.2E-6;0;Globalstar
12.13807261;0.0001529;51.9866;243.8902;83.3587;66.2782;-0.00012251;-1.02E-6;0;Globalstar
12.13807261;0.0001529;51.9866;243.8902;83.3587;66.2782;-0.00012251;-1.02E-6;0;Globalstar
12.1380725;0.0001522;51.9867;241.628;84.6019;23.0006;-2.3407E-5;-9.2E-7;0;Globalstar
12.13807268;0.0001513;51.9867;240.5193;85.3971;326.0443;3.383E-5;-8.7E-7;0;Globalstar
12.13807053;0.0001506;51.9864;236.8198;87.6958;21.6292;0.0004009;-5.1E-7;0;Globalstar
12.13807063;0.0001507;51.9864;236.5815;87.7526;36.3545;0.00043145;-4.9E-7;0;Globalstar
12.13807178;0.0001501;51.9865;233.3883;89.4198;16.897;0.00062151;-3.0E-7;0;Globalstar
12.13807296;0.0001493;51.9866;230.6417;90.9173;15.3253;0.00069666;-2.3E-7;0;Globalstar
12.138074;0.0001485;51.9867;228.3714;92.1678;344.9399;0.00071355;-2.2E-7;0;Globalstar
12.13807455;0.0001474;51.9867;227.4086;92.6497;58.9368;0.00074798;-1.8E-7;0;Globalstar
12.13807618;0.000146;51.9868;224.6623;94.2018;57.0528;0.00078974;-1.4E-7;0;Globalstar
12.13807726;0.0001452;51.9868;222.4031;95.463;9.2613;0.0007905;-1.4E-7;0;Globalstar
12.13807938;0.0001438;51.9868;219.158;97.1609;71.7699;0.00088303;-5.0E-8;0;Globalstar
12.13808125;0.0001426;51.9868;216.4282;98.7705;43.791;0.00099604;6.0E-8;0;Globalstar
12.13808272;0.0001417;51.9868;214.1639;99.8976;4.1004;0.0010729;1.3E-7;0;Globalstar
12.13808508;0.000141;51.9869;211.6594;101.3179;342.2961;0.0012486;3.0E-7;0;Globalstar
12.13808588;0.0001411;51.9869;210.9367;101.6077;38.7099;0.0013223;3.7E-7;0;Globalstar
12.13808842;0.0001401;51.9869;208.1676;103.2218;72.2365;0.0014514;4.9E-7;0;Globalstar
12.13809141;0.0001389;51.9869;205.4212;104.7191;70.4546;0.0015837;6.2E-7;0;Globalstar
12.13809293;0.000139;51.9871;204.1495;105.3023;270.6376;0.0016166;6.5E-7;0;Globalstar
12.13809377;0.0001386;51.9871;203.1789;105.9979;356.5863;0.0015967;6.3E-7;0;Globalstar
12.1380967;0.0001375;51.987;200.4324;107.6396;354.6652;0.0015878;6.2E-7;0;Globalstar
12.13809925;0.0001364;51.987;197.9282;109.0099;332.2057;0.0014951;5.3E-7;0;Globalstar
12.13810177;0.0001353;51.987;195.4148;110.3536;324.2629;0.0013758;4.2E-7;0;Globalstar
12.13810241;0.0001351;51.987;194.94;110.6075;350.8077;0.0013925;4.4E-7;0;Globalstar
12.13810504;0.000133;51.9869;192.1932;112.1155;349.7077;0.0012642;3.1E-7;0;Globalstar
12.13810552;0.0001326;51.9869;191.7122;112.2888;26.0122;0.0012474;3.0E-7;0;Globalstar
12.13810804;0.0001307;51.9868;188.9659;113.8241;24.1328;0.0011626;2.2E-7;0;Globalstar
12.13810996;0.0001292;51.9866;186.2192;115.2607;22.9509;0.0010435;1.0E-7;0;Globalstar
12.1381109;0.0001281;51.9866;184.9239;116.0741;259.4661;0.0010107;7.0E-8;0;Globalstar
12.13811162;0.0001271;51.9865;183.4729;116.7663;20.9943;0.00094119;0;0;Globalstar
12.13811275;0.0001255;51.9864;181.2078;117.9844;342.3461;0.0008706;-6.0E-8;0;Globalstar
12.13811416;0.0001231;51.9863;178.2333;119.5302;339.2992;0.00080338;-1.3E-7;0;Globalstar
12.13811541;0.0001209;51.9862;175.487;120.9846;337.2507;0.00075244;-1.8E-7;0;Globalstar
12.13811641;0.0001192;51.9861;172.7406;122.4463;335.3935;0.00065597;-2.7E-7;0;Globalstar
12.13811738;0.0001171;51.986;169.96;123.8681;27.4704;0.00053786;-3.8E-7;0;Globalstar
12.1381175;0.0001168;51.986;169.7406;123.8278;12.5112;0.00053288;-3.9E-7;0;Globalstar
12.13811819;0.0001145;51.9859;166.9945;125.0559;10.4055;0.00036573;-5.5E-7;0;Globalstar
12.13811864;0.0001123;51.9858;164.2557;126.5904;356.469;0.00017054;-7.4E-7;0;Globalstar
12.13811862;0.00011;51.9857;161.4811;127.9785;39.0717;-7.2673E-5;-9.7E-7;0;Globalstar
12.13811803;0.0001062;51.9855;156.9905;130.3283;259.4535;-0.00042129;-1.3E-6;0;Globalstar
12.13811768;0.0001055;51.9855;156.0163;130.575;351.4873;-0.00047369;-1.35E-6;0;Globalstar
12.13811679;0.0001033;51.9853;153.2696;131.5994;350.1693;-0.00060852;-1.48E-6;0;Globalstar
12.13811673;0.000103;51.9853;153.0208;131.6838;21.4385;-0.00061995;-1.49E-6;0;Globalstar
12.13811566;0.0001014;51.9852;150.523;132.7106;348.6937;-0.00069182;-1.56E-6;0;Globalstar
12.13811555;0.0001011;51.9852;150.2744;132.8125;19.5859;-0.00070296;-1.57E-6;0;Globalstar
12.13811438;9.89E-5;51.9851;147.528;133.7988;17.9903;-0.00072675;-1.6E-6;0;Globalstar
12.13811348;9.77E-5;51.9851;145.7423;134.6233;305.459;-0.00074386;-1.61E-6;0;Globalstar
12.13811311;9.65E-5;51.9851;144.7807;134.5292;17.7595;-0.00072017;-1.59E-6;0;Globalstar
12.13811157;9.4E-5;51.9851;142.0342;135.3452;16.4651;-0.00074478;-1.61E-6;0;Globalstar
12.13810978;9.13E-5;51.9852;139.2879;136.0048;15.0094;-0.00081214;-1.68E-6;0;Globalstar
12.13810853;8.99E-5;51.9852;137.5017;136.6506;303.5254;-0.00088989;-1.75E-6;0;Globalstar
12.13810783;8.88E-5;51.9852;136.5411;136.6154;14.4949;-0.00091628;-1.78E-6;0;Globalstar
12.13810596;8.68E-5;51.9853;134.0332;137.1625;358.2241;-0.0010244;-1.88E-6;0;Globalstar
12.13810491;8.54E-5;51.9853;132.7422;137.3795;228.4397;-0.0010962;-1.95E-6;0;Globalstar
12.13810375;8.47E-5;51.9854;131.049;139.1445;9.6041;-0.0011715;-2.02E-6;0;Globalstar
12.13810039;8.15E-5;51.9855;127.2331;140.2232;250.0424;-0.0013352;-2.18E-6;0;Globalstar
12.13809883;8.03E-5;51.9855;125.5558;140.3791;7.936;-0.0013782;-2.22E-6;0;Globalstar
12.13809759;7.93E-5;51.9855;124.2547;140.4409;254.1871;-0.0014099;-2.25E-6;0;Globalstar
12.13809712;7.91E-5;51.9856;123.7684;140.0205;299.3816;-0.0014118;-2.25E-6;0;Globalstar
12.13809505;7.75E-5;51.9856;121.5197;140.591;235.3996;-0.0014064;-2.25E-6;0;Globalstar
12.13809392;7.67E-5;51.9857;120.0625;141.1834;6.6268;-0.0013561;-2.2E-6;0;Globalstar
12.13809162;7.51E-5;51.9858;116.8422;141.9951;30.4844;-0.0011973;-2.05E-6;0;Globalstar
12.13808974;7.37E-5;51.9859;114.5692;142.7804;4.5887;-0.0010965;-1.95E-6;0;Globalstar
12.13808828;7.27E-5;51.9861;112.562;143.0391;281.1453;-0.0010001;-1.86E-6;0;Globalstar
12.13808671;7.16E-5;51.9862;110.5321;142.9973;233.7899;-0.00092797;-1.79E-6;0;Globalstar
12.13808586;7.06E-5;51.9863;109.0752;143.4456;4.894;-0.00084922;-1.71E-6;0;Globalstar
12.13808617;6.93E-5;51.9869;106.3291;143.4217;4.6538;-0.00085613;-1.72E-6;0;Globalstar
12.13808535;6.83E-5;51.9871;104.3233;143.6106;279.2288;-0.00075396;-1.62E-6;0;Globalstar
12.13808417;6.73E-5;51.9872;102.0465;143.5753;260.1534;-0.00068232;-1.55E-6;0;Globalstar
